{
  "type": "FeatureCollection",
  "features": [
    {
      "type": "Feature",
      "properties": {
        "norad_id": 30494,
        "name": "FENGYUN 1C DEB",
        "group": "fengyun-1c-debris",
        "lat": -46.1918752250187,
        "lon": -167.7342843638546,
        "alt_km": 836.7266763106109,
        "timestamp": "2025-12-12T16:50:33.421422+00:00",
        "meta_object_name": "FENGYUN 1C DEB",
        "meta_object_id": "1999-025AHG",
        "meta_epoch": "2025-12-11T13:37:35.489568",
        "meta_mean_motion": 13.79365167,
        "meta_eccentricity": 0.01858349,
        "meta_inclination": 99.2831,
        "meta_ra_of_asc_node": 20.9711,
        "meta_arg_of_pericenter": 225.3036,
        "meta_mean_anomaly": 133.2851,
        "meta_ephemeris_type": 0,
        "meta_classification_type": "U",
        "meta_norad_cat_id": 30494,
        "meta_element_set_no": 999,
        "meta_rev_at_epoch": 94470,
        "meta_bstar": 0.0020143048,
        "meta_mean_motion_dot": 2.311e-05,
        "meta_mean_motion_ddot": 0,
        "tle_line1": "1 30494U 99025AHG 25345.56777187  .00002311  00000+0  20143-2 0  9990",
        "tle_line2": "2 30494  99.2831  20.9711 0185834 225.3036 133.2851 13.79365167944709"
      },
      "geometry": {
        "type": "Point",
        "coordinates": [
          -167.7342843638546,
          -46.1918752250187
        ]
      }
    },
    {
      "type": "Feature",
      "properties": {
        "norad_id": 30495,
        "name": "FENGYUN 1C DEB",
        "group": "fengyun-1c-debris",
        "lat": -48.586786145532145,
        "lon": -118.7994184152616,
        "alt_km": 914.5326511299991,
        "timestamp": "2025-12-12T16:50:33.421433+00:00",
        "meta_object_name": "FENGYUN 1C DEB",
        "meta_object_id": "1999-025AHH",
        "meta_epoch": "2025-12-12T04:28:20.387712",
        "meta_mean_motion": 12.94382523,
        "meta_eccentricity": 0.05971269,
        "meta_inclination": 102.2606,
        "meta_ra_of_asc_node": 74.895,
        "meta_arg_of_pericenter": 267.7902,
        "meta_mean_anomaly": 85.4744,
        "meta_ephemeris_type": 0,
        "meta_classification_type": "U",
        "meta_norad_cat_id": 30495,
        "meta_element_set_no": 999,
        "meta_rev_at_epoch": 88666,
        "meta_bstar": 0.0046408031,
        "meta_mean_motion_dot": 2.851e-05,
        "meta_mean_motion_ddot": 0,
        "tle_line1": "1 30495U 99025AHH 25346.18634708  .00002851  00000+0  46408-2 0  9992",
        "tle_line2": "2 30495 102.2606  74.8950 0597126 267.7902  85.4744 12.94382523886661"
      },
      "geometry": {
        "type": "Point",
        "coordinates": [
          -118.7994184152616,
          -48.586786145532145
        ]
      }
    },
    {
      "type": "Feature",
      "properties": {
        "norad_id": 30496,
        "name": "FENGYUN 1C DEB",
        "group": "fengyun-1c-debris",
        "lat": 76.6737494715186,
        "lon": -148.206551519629,
        "alt_km": 490.79862878918084,
        "timestamp": "2025-12-12T16:50:33.421443+00:00",
        "meta_object_name": "FENGYUN 1C DEB",
        "meta_object_id": "1999-025AHJ",
        "meta_epoch": "2025-12-11T05:08:01.394592",
        "meta_mean_motion": 14.94222827,
        "meta_eccentricity": 0.01303502,
        "meta_inclination": 98.7826,
        "meta_ra_of_asc_node": 250.8743,
        "meta_arg_of_pericenter": 102.3216,
        "meta_mean_anomaly": 259.2629,
        "meta_ephemeris_type": 0,
        "meta_classification_type": "U",
        "meta_norad_cat_id": 30496,
        "meta_element_set_no": 999,
        "meta_rev_at_epoch": 1121,
        "meta_bstar": 0.00083209618,
        "meta_mean_motion_dot": 0.00010491,
        "meta_mean_motion_ddot": 0,
        "tle_line1": "1 30496U 99025AHJ 25345.21390503  .00010491  00000+0  83210-3 0  9990",
        "tle_line2": "2 30496  98.7826 250.8743 0130350 102.3216 259.2629 14.94222827 11211"
      },
      "geometry": {
        "type": "Point",
        "coordinates": [
          -148.206551519629,
          76.6737494715186
        ]
      }
    },
    {
      "type": "Feature",
      "properties": {
        "norad_id": 30498,
        "name": "FENGYUN 1C DEB",
        "group": "fengyun-1c-debris",
        "lat": -33.46490555038369,
        "lon": -148.34844819644243,
        "alt_km": 838.0744233404375,
        "timestamp": "2025-12-12T16:50:33.421453+00:00",
        "meta_object_name": "FENGYUN 1C DEB",
        "meta_object_id": "1999-025AHL",
        "meta_epoch": "2025-12-12T02:16:07.730688",
        "meta_mean_motion": 14.06056902,
        "meta_eccentricity": 0.01047101,
        "meta_inclination": 99.2377,
        "meta_ra_of_asc_node": 37.2078,
        "meta_arg_of_pericenter": 157.6113,
        "meta_mean_anomaly": 223.1746,
        "meta_ephemeris_type": 0,
        "meta_classification_type": "U",
        "meta_norad_cat_id": 30498,
        "meta_element_set_no": 999,
        "meta_rev_at_epoch": 95760,
        "meta_bstar": 0.002823764,
        "meta_mean_motion_dot": 4.826e-05,
        "meta_mean_motion_ddot": 0,
        "tle_line1": "1 30498U 99025AHL 25346.09453392  .00004826  00000+0  28238-2 0  9998",
        "tle_line2": "2 30498  99.2377  37.2078 0104710 157.6113 223.1746 14.06056902957602"
      },
      "geometry": {
        "type": "Point",
        "coordinates": [
          -148.34844819644243,
          -33.46490555038369
        ]
      }
    },
    {
      "type": "Feature",
      "properties": {
        "norad_id": 30500,
        "name": "FENGYUN 1C DEB",
        "group": "fengyun-1c-debris",
        "lat": 67.12009484782324,
        "lon": 55.943919154163176,
        "alt_km": 769.6164764693267,
        "timestamp": "2025-12-12T16:50:33.421463+00:00",
        "meta_object_name": "FENGYUN 1C DEB",
        "meta_object_id": "1999-025AHN",
        "meta_epoch": "2025-12-12T04:52:03.720576",
        "meta_mean_motion": 14.25186793,
        "meta_eccentricity": 0.00648229,
        "meta_inclination": 99.0723,
        "meta_ra_of_asc_node": 77.6767,
        "meta_arg_of_pericenter": 117.8824,
        "meta_mean_anomaly": 273.0615,
        "meta_ephemeris_type": 0,
        "meta_classification_type": "U",
        "meta_norad_cat_id": 30500,
        "meta_element_set_no": 999,
        "meta_rev_at_epoch": 96674,
        "meta_bstar": 0.0041433504,
        "meta_mean_motion_dot": 9.916e-05,
        "meta_mean_motion_ddot": 0,
        "tle_line1": "1 30500U 99025AHN 25346.20282084  .00009916  00000+0  41434-2 0  9991",
        "tle_line2": "2 30500  99.0723  77.6767 0064822 117.8824 273.0615 14.25186793966745"
      },
      "geometry": {
        "type": "Point",
        "coordinates": [
          55.943919154163176,
          67.12009484782324
        ]
      }
    },
    {
      "type": "Feature",
      "properties": {
        "norad_id": 30501,
        "name": "FENGYUN 1C DEB",
        "group": "fengyun-1c-debris",
        "lat": 16.398443242678102,
        "lon": -25.193400503388602,
        "alt_km": 836.9116362599943,
        "timestamp": "2025-12-12T16:50:33.421473+00:00",
        "meta_object_name": "FENGYUN 1C DEB",
        "meta_object_id": "1999-025AHP",
        "meta_epoch": "2025-12-11T22:22:20.143776",
        "meta_mean_motion": 14.25330893,
        "meta_eccentricity": 0.004061,
        "meta_inclination": 99.0845,
        "meta_ra_of_asc_node": 336.7088,
        "meta_arg_of_pericenter": 205.1912,
        "meta_mean_anomaly": 184.7235,
        "meta_ephemeris_type": 0,
        "meta_classification_type": "U",
        "meta_norad_cat_id": 30501,
        "meta_element_set_no": 999,
        "meta_rev_at_epoch": 96908,
        "meta_bstar": 0.0025286,
        "meta_mean_motion_dot": 5.965e-05,
        "meta_mean_motion_ddot": 0,
        "tle_line1": "1 30501U 99025AHP 25345.93217759  .00005965  00000+0  25286-2 0  9995",
        "tle_line2": "2 30501  99.0845 336.7088 0040610 205.1912 184.7235 14.25330893969082"
      },
      "geometry": {
        "type": "Point",
        "coordinates": [
          -25.193400503388602,
          16.398443242678102
        ]
      }
    },
    {
      "type": "Feature",
      "properties": {
        "norad_id": 30503,
        "name": "FENGYUN 1C DEB",
        "group": "fengyun-1c-debris",
        "lat": -52.82890383758148,
        "lon": -2.1281048472716533,
        "alt_km": 840.3954375131761,
        "timestamp": "2025-12-12T16:50:33.421484+00:00",
        "meta_object_name": "FENGYUN 1C DEB",
        "meta_object_id": "1999-025AHR",
        "meta_epoch": "2025-12-12T05:54:24.763680",
        "meta_mean_motion": 14.16124274,
        "meta_eccentricity": 0.00082932,
        "meta_inclination": 99.2045,
        "meta_ra_of_asc_node": 189.7491,
        "meta_arg_of_pericenter": 268.1669,
        "meta_mean_anomaly": 163.9668,
        "meta_ephemeris_type": 0,
        "meta_classification_type": "U",
        "meta_norad_cat_id": 30503,
        "meta_element_set_no": 999,
        "meta_rev_at_epoch": 97339,
        "meta_bstar": 0.0004171021,
        "meta_mean_motion_dot": 7.77e-06,
        "meta_mean_motion_ddot": 0,
        "tle_line1": "1 30503U 99025AHR 25346.24611995  .00000777  00000+0  41710-3 0  9999",
        "tle_line2": "2 30503  99.2045 189.7491 0008293 268.1669 163.9668 14.16124274973393"
      },
      "geometry": {
        "type": "Point",
        "coordinates": [
          -2.1281048472716533,
          -52.82890383758148
        ]
      }
    }
  ]
}